COSMOS 1743             
1 16719U 86034A   25310.65202066  .00039339  00000+0  70685-3 0  9998
2 16719  82.5384 201.9986 0008215  36.4983 323.6826 15.49655758161148
SL-14 R/B               
1 16792U 86046B   25310.67637822  .00000735  00000+0  82263-4 0  9990
2 16792  82.4841 196.3678 0021629 275.3272  84.5476 14.85430269108142
SL-14 R/B               
1 16882U 86055B   25310.80464765  .00000911  00000+0  10255-3 0  9996
2 16882  82.5210 242.1338 0019681  23.2495   6.8868 14.85469505101126
AJISAI (EGS)            
1 16908U 86061A   25310.92706316 -.00000109  00000+0 -83541-4 0  9996
2 16908  50.0070 110.8380 0011164 335.5963  98.0428 12.44514170452715
COSMOS 1812             
1 17295U 87003A   25310.50220576  .00081480  00000+0  72362-3 0  9993
2 17295  82.4888 331.0229 0004159 155.8551 204.2906 15.68246297124968
SL-14 R/B               
1 17567U 87024B   25310.68708554  .00000794  00000+0  87997-4 0  9994
2 17567  82.5306 208.3162 0017165 311.8236  48.1514 14.85969147 69864
COSMOS 1833             
1 17589U 87027A   25310.75583396 -.00000252  00000+0 -10915-3 0  9990
2 17589  70.9156 224.4193 0020917  22.5434 337.6601 14.13022106992943
SL-16 R/B               
1 17590U 87027B   25310.66278642  .00000303  00000+0  17422-3 0  9992
2 17590  71.0013 175.7381 0006918 297.4440  62.5980 14.17145175997957
SL-14 R/B               
1 17912U 87038B   25310.68623196  .00000887  00000+0  10045-3 0  9993
2 17912  82.5030  52.6502 0018640 207.3823 152.6413 14.85204513 60971
COSMOS 1844             
1 17973U 87041A   25310.92110039  .00000473  00000+0  27055-3 0  9998
2 17973  70.8978 293.1180 0032068 210.3773 149.5492 14.14514981986223
SL-14 R/B               
1 18153U 87055B   25310.95391951  .00000690  00000+0  76846-4 0  9995
2 18153  82.4967 104.7127 0021986  61.3210 299.0212 14.85460787 51716
COSMOS 1867             
1 18187U 87060A   25310.90308448 -.00000018  00000+0  31072-4 0  9999
2 18187  65.0100 290.5585 0013741 267.5088  92.4423 14.31476778  2368
