CCSDS_OMM_VERS = 2.0
CREATION_DATE  = 
ORIGINATOR     = 

OBJECT_NAME    = COSMOS 1743
OBJECT_ID      = 1986-034A
CENTER_NAME    = EARTH
REF_FRAME      = TEME
TIME_SYSTEM    = UTC
MEAN_ELEMENT_THEORY = SGP/SGP4

EPOCH          = 2025-11-06T15:38:54.585024
MEAN_MOTION    = 15.49655758
ECCENTRICITY   = .00082158
INCLINATION    = 82.5384
RA_OF_ASC_NODE = 201.9986
ARG_OF_PERICENTER = 36.4983
MEAN_ANOMALY   = 323.6826

EPHEMERIS_TYPE = 0
CLASSIFICATION_TYPE = U
NORAD_CAT_ID   = 16719
ELEMENT_SET_NO = 999
REV_AT_EPOCH   = 16114
BSTAR          = .70685328E-3
MEAN_MOTION_DOT = .39339E-3
MEAN_MOTION_DDOT = 0

CCSDS_OMM_VERS = 2.0
CREATION_DATE  = 
ORIGINATOR     = 

OBJECT_NAME    = SL-14 R/B
OBJECT_ID      = 1986-046B
CENTER_NAME    = EARTH
REF_FRAME      = TEME
TIME_SYSTEM    = UTC
MEAN_ELEMENT_THEORY = SGP/SGP4

EPOCH          = 2025-11-06T16:13:59.078208
MEAN_MOTION    = 14.85430269
ECCENTRICITY   = .00216297
INCLINATION    = 82.4841
RA_OF_ASC_NODE = 196.3678
ARG_OF_PERICENTER = 275.3272
MEAN_ANOMALY   = 84.5476

EPHEMERIS_TYPE = 0
CLASSIFICATION_TYPE = U
NORAD_CAT_ID   = 16792
ELEMENT_SET_NO = 999
REV_AT_EPOCH   = 10814
BSTAR          = .82263408E-4
MEAN_MOTION_DOT = .735E-5
MEAN_MOTION_DDOT = 0

CCSDS_OMM_VERS = 2.0
CREATION_DATE  = 
ORIGINATOR     = 

OBJECT_NAME    = SL-14 R/B
OBJECT_ID      = 1986-055B
CENTER_NAME    = EARTH
REF_FRAME      = TEME
TIME_SYSTEM    = UTC
MEAN_ELEMENT_THEORY = SGP/SGP4

EPOCH          = 2025-11-06T19:18:41.556960
MEAN_MOTION    = 14.85469505
ECCENTRICITY   = .0019681
INCLINATION    = 82.5210
RA_OF_ASC_NODE = 242.1338
ARG_OF_PERICENTER = 23.2495
MEAN_ANOMALY   = 6.8868

EPHEMERIS_TYPE = 0
CLASSIFICATION_TYPE = U
NORAD_CAT_ID   = 16882
ELEMENT_SET_NO = 999
REV_AT_EPOCH   = 10112
BSTAR          = .1025527E-3
MEAN_MOTION_DOT = .911E-5
MEAN_MOTION_DDOT = 0

CCSDS_OMM_VERS = 2.0
CREATION_DATE  = 
ORIGINATOR     = 

OBJECT_NAME    = AJISAI (EGS)
OBJECT_ID      = 1986-061A
CENTER_NAME    = EARTH
REF_FRAME      = TEME
TIME_SYSTEM    = UTC
MEAN_ELEMENT_THEORY = SGP/SGP4

EPOCH          = 2025-11-06T22:14:58.257024
MEAN_MOTION    = 12.44514170
ECCENTRICITY   = .00111642
INCLINATION    = 50.0070
RA_OF_ASC_NODE = 110.8380
ARG_OF_PERICENTER = 335.5963
MEAN_ANOMALY   = 98.0428

EPHEMERIS_TYPE = 0
CLASSIFICATION_TYPE = U
NORAD_CAT_ID   = 16908
ELEMENT_SET_NO = 999
REV_AT_EPOCH   = 45271
BSTAR          = -.83541252E-4
MEAN_MOTION_DOT = -.109E-5
MEAN_MOTION_DDOT = 0

CCSDS_OMM_VERS = 2.0
CREATION_DATE  = 
ORIGINATOR     = 

OBJECT_NAME    = COSMOS 1812
OBJECT_ID      = 1987-003A
CENTER_NAME    = EARTH
REF_FRAME      = TEME
TIME_SYSTEM    = UTC
MEAN_ELEMENT_THEORY = SGP/SGP4

EPOCH          = 2025-11-06T12:03:10.577664
MEAN_MOTION    = 15.68246297
ECCENTRICITY   = .00041596
INCLINATION    = 82.4888
RA_OF_ASC_NODE = 331.0229
ARG_OF_PERICENTER = 155.8551
MEAN_ANOMALY   = 204.2906

EPHEMERIS_TYPE = 0
CLASSIFICATION_TYPE = U
NORAD_CAT_ID   = 17295
ELEMENT_SET_NO = 999
REV_AT_EPOCH   = 12496
BSTAR          = .72362045E-3
MEAN_MOTION_DOT = .8148E-3
MEAN_MOTION_DDOT = 0

CCSDS_OMM_VERS = 2.0
CREATION_DATE  = 
ORIGINATOR     = 

OBJECT_NAME    = SL-14 R/B
OBJECT_ID      = 1987-024B
CENTER_NAME    = EARTH
REF_FRAME      = TEME
TIME_SYSTEM    = UTC
MEAN_ELEMENT_THEORY = SGP/SGP4

EPOCH          = 2025-11-06T16:29:24.190656
MEAN_MOTION    = 14.85969147
ECCENTRICITY   = .00171651
INCLINATION    = 82.5306
RA_OF_ASC_NODE = 208.3162
ARG_OF_PERICENTER = 311.8236
MEAN_ANOMALY   = 48.1514

EPHEMERIS_TYPE = 0
CLASSIFICATION_TYPE = U
NORAD_CAT_ID   = 17567
ELEMENT_SET_NO = 999
REV_AT_EPOCH   = 6986
BSTAR          = .87996696E-4
MEAN_MOTION_DOT = .794E-5
MEAN_MOTION_DDOT = 0

CCSDS_OMM_VERS = 2.0
CREATION_DATE  = 
ORIGINATOR     = 

OBJECT_NAME    = COSMOS 1833
OBJECT_ID      = 1987-027A
CENTER_NAME    = EARTH
REF_FRAME      = TEME
TIME_SYSTEM    = UTC
MEAN_ELEMENT_THEORY = SGP/SGP4

EPOCH          = 2025-11-06T18:08:24.054144
MEAN_MOTION    = 14.13022106
ECCENTRICITY   = .00209176
INCLINATION    = 70.9156
RA_OF_ASC_NODE = 224.4193
ARG_OF_PERICENTER = 22.5434
MEAN_ANOMALY   = 337.6601

EPHEMERIS_TYPE = 0
CLASSIFICATION_TYPE = U
NORAD_CAT_ID   = 17589
ELEMENT_SET_NO = 999
REV_AT_EPOCH   = 99294
BSTAR          = -.10914989E-3
MEAN_MOTION_DOT = -.252E-5
MEAN_MOTION_DDOT = 0

CCSDS_OMM_VERS = 2.0
CREATION_DATE  = 
ORIGINATOR     = 

OBJECT_NAME    = SL-16 R/B
OBJECT_ID      = 1987-027B
CENTER_NAME    = EARTH
REF_FRAME      = TEME
TIME_SYSTEM    = UTC
MEAN_ELEMENT_THEORY = SGP/SGP4

EPOCH          = 2025-11-06T15:54:24.746688
MEAN_MOTION    = 14.17145175
ECCENTRICITY   = .00069182
INCLINATION    = 71.0013
RA_OF_ASC_NODE = 175.7381
ARG_OF_PERICENTER = 297.4440
MEAN_ANOMALY   = 62.5980

EPHEMERIS_TYPE = 0
CLASSIFICATION_TYPE = U
NORAD_CAT_ID   = 17590
ELEMENT_SET_NO = 999
REV_AT_EPOCH   = 99795
BSTAR          = .17422246E-3
MEAN_MOTION_DOT = .303E-5
MEAN_MOTION_DDOT = 0

CCSDS_OMM_VERS = 2.0
CREATION_DATE  = 
ORIGINATOR     = 

OBJECT_NAME    = SL-14 R/B
OBJECT_ID      = 1987-038B
CENTER_NAME    = EARTH
REF_FRAME      = TEME
TIME_SYSTEM    = UTC
MEAN_ELEMENT_THEORY = SGP/SGP4

EPOCH          = 2025-11-06T16:28:10.441344
MEAN_MOTION    = 14.85204513
ECCENTRICITY   = .00186407
INCLINATION    = 82.5030
RA_OF_ASC_NODE = 52.6502
ARG_OF_PERICENTER = 207.3823
MEAN_ANOMALY   = 152.6413

EPHEMERIS_TYPE = 0
CLASSIFICATION_TYPE = U
NORAD_CAT_ID   = 17912
ELEMENT_SET_NO = 999
REV_AT_EPOCH   = 6097
BSTAR          = .10045283E-3
MEAN_MOTION_DOT = .887E-5
MEAN_MOTION_DDOT = 0

CCSDS_OMM_VERS = 2.0
CREATION_DATE  = 
ORIGINATOR     = 

OBJECT_NAME    = COSMOS 1844
OBJECT_ID      = 1987-041A
CENTER_NAME    = EARTH
REF_FRAME      = TEME
TIME_SYSTEM    = UTC
MEAN_ELEMENT_THEORY = SGP/SGP4

EPOCH          = 2025-11-06T22:06:23.073696
MEAN_MOTION    = 14.14514981
ECCENTRICITY   = .00320689
INCLINATION    = 70.8978
RA_OF_ASC_NODE = 293.1180
ARG_OF_PERICENTER = 210.3773
MEAN_ANOMALY   = 149.5492

EPHEMERIS_TYPE = 0
CLASSIFICATION_TYPE = U
NORAD_CAT_ID   = 17973
ELEMENT_SET_NO = 999
REV_AT_EPOCH   = 98622
BSTAR          = .27054546E-3
MEAN_MOTION_DOT = .473E-5
MEAN_MOTION_DDOT = 0

CCSDS_OMM_VERS = 2.0
CREATION_DATE  = 
ORIGINATOR     = 

OBJECT_NAME    = SL-14 R/B
OBJECT_ID      = 1987-055B
CENTER_NAME    = EARTH
REF_FRAME      = TEME
TIME_SYSTEM    = UTC
MEAN_ELEMENT_THEORY = SGP/SGP4

EPOCH          = 2025-11-06T22:53:38.645664
MEAN_MOTION    = 14.85460787
ECCENTRICITY   = .00219861
INCLINATION    = 82.4967
RA_OF_ASC_NODE = 104.7127
ARG_OF_PERICENTER = 61.3210
MEAN_ANOMALY   = 299.0212

EPHEMERIS_TYPE = 0
CLASSIFICATION_TYPE = U
NORAD_CAT_ID   = 18153
ELEMENT_SET_NO = 999
REV_AT_EPOCH   = 5171
BSTAR          = .76845711E-4
MEAN_MOTION_DOT = .69E-5
MEAN_MOTION_DDOT = 0

CCSDS_OMM_VERS = 2.0
CREATION_DATE  = 
ORIGINATOR     = 

OBJECT_NAME    = COSMOS 1867
OBJECT_ID      = 1987-060A
CENTER_NAME    = EARTH
REF_FRAME      = TEME
TIME_SYSTEM    = UTC
MEAN_ELEMENT_THEORY = SGP/SGP4

EPOCH          = 2025-11-06T21:40:26.499072
MEAN_MOTION    = 14.31476778
ECCENTRICITY   = .00137414
INCLINATION    = 65.0100
RA_OF_ASC_NODE = 290.5585
ARG_OF_PERICENTER = 267.5088
MEAN_ANOMALY   = 92.4423

EPHEMERIS_TYPE = 0
CLASSIFICATION_TYPE = U
NORAD_CAT_ID   = 18187
ELEMENT_SET_NO = 999
REV_AT_EPOCH   = 236
BSTAR          = .31071981E-4
MEAN_MOTION_DOT = -.18E-6
MEAN_MOTION_DDOT = 0

